NORAD_CAT_ID,OBJECT_NAME,OBJECT_TYPE,EPOCH,MEAN_MOTION,ECCENTRICITY,INCLINATION,RA_OF_ASC_NODE,ARG_OF_PERICENTER,MEAN_ANOMALY,BSTAR,MEAN_MOTION_DOT,MEAN_MOTION_DDOT,TLE_LINE0,TLE_LINE1,TLE_LINE2,SEMIMAJOR_AXIS,PERIOD,APOGEE,PERIGEE,DECAYED
52137.0,STARLINK-3733,PAYLOAD,2024-05-18 18:28:00,15.08858425,0.0001413,53.214,151.6171,89.4567,270.6587,0.0007369,0.00011465,0.0,0 STARLINK-3733,1 52137U 22029BB  24139.76945291  .00011465  00000-0  73690-3 0  9990,2 52137  53.2140 151.6171 0001413  89.4567 270.6587 15.08858425121314,6917.824,95.436,540.667,538.712,0.0
52137.0,STARLINK-3733,PAYLOAD,2024-05-19 04:00:19,15.08838234,0.000145,53.2143,149.8329,99.2389,260.8768,-9.565e-05,-1.81e-05,0.0,0 STARLINK-3733,1 52137U 22029BB  24140.16689585 -.00001810  00000-0 -95650-4 0  9993,2 52137  53.2143 149.8329 0001450  99.2389 260.8768 15.08838234121377,6917.886,95.438,540.754,538.748,0.0
52137.0,STARLINK-3733,PAYLOAD,2024-05-19 07:11:06,15.08838247,0.0001459,53.2144,149.2381,99.6502,260.4655,-5.4226e-06,-3.74e-06,0.0,0 STARLINK-3733,1 52137U 22029BB  24140.29937650 -.00000374  00000-0 -54226-5 0  9995,2 52137  53.2144 149.2381 0001459  99.6502 260.4655 15.08838247121397,6917.886,95.438,540.76,538.741,0.0
52137.0,STARLINK-3733,PAYLOAD,2024-05-20 07:01:53,15.08845571,0.000147,53.2147,144.7774,102.8133,257.3023,0.00043987,6.721e-05,0.0,0 STARLINK-3733,1 52137U 22029BB  24141.29297793  .00006721  00000-0  43987-3 0  9993,2 52137  53.2147 144.7774 0001470 102.8133 257.3023 15.08845571121545,6917.863,95.437,540.745,538.711,0.0
52137.0,STARLINK-3733,PAYLOAD,2024-05-21 03:41:53,15.08840046,0.0001406,53.2139,140.9109,109.488,250.6264,3.3151e-05,2.4e-06,0.0,0 STARLINK-3733,1 52137U 22029BB  24142.15409679  .00000240  00000-0  33151-4 0  9990,2 52137  53.2139 140.9109 0001406 109.4880 250.6264 15.08840046121676,6917.88,95.438,540.718,538.773,0.0
52137.0,STARLINK-3733,PAYLOAD,2024-05-21 06:52:40,15.08840381,0.0001321,53.2137,140.3161,98.8353,261.2788,0.00012137,1.644e-05,0.0,0 STARLINK-3733,1 52137U 22029BB  24142.28657780  .00001644  00000-0  12137-3 0  9991,2 52137  53.2137 140.3161 0001321  98.8353 261.2788 15.08840381121691,6917.879,95.438,540.658,538.83,0.0
52137.0,STARLINK-3733,PAYLOAD,2024-05-21 22:46:31,15.0884266,0.0001262,53.2133,137.3415,100.803,259.3105,5.3998e-05,5.72e-06,0.0,0 STARLINK-3733,1 52137U 22029BB  24142.94897550  .00000572  00000-0  53998-4 0  9995,2 52137  53.2133 137.3415 0001262 100.8030 259.3105 15.08842660121799,6917.872,95.437,540.61,538.864,0.0
52137.0,STARLINK-3733,PAYLOAD,2024-05-22 05:08:04,15.08842118,0.0001262,53.2137,136.1524,94.6404,265.4733,4.0877e-05,3.63e-06,0.0,0 STARLINK-3733,1 52137U 22029BB  24143.21393580  .00000363  00000-0  40877-4 0  9990,2 52137  53.2137 136.1524 0001262  94.6404 265.4733 15.08842118121834,6917.874,95.437,540.612,538.866,0.0
52137.0,STARLINK-3733,PAYLOAD,2024-05-22 06:43:27,15.08842359,0.0001285,53.2139,135.8551,96.5353,263.5785,3.9768e-05,3.45e-06,0.0,0 STARLINK-3733,1 52137U 22029BB  24143.28017539  .00000345  00000-0  39768-4 0  9991,2 52137  53.2139 135.8551 0001285  96.5353 263.5785 15.08842359121845,6917.873,95.437,540.627,538.849,0.0
52137.0,STARLINK-3733,PAYLOAD,2024-05-23 09:45:00,15.0883848,0.0001389,53.2165,130.8008,95.0652,265.0498,8.4858e-05,1.063e-05,0.0,0 STARLINK-3733,1 52137U 22029BB  24144.40626106  .00001063  00000-0  84858-4 0  9990,2 52137  53.2165 130.8008 0001389  95.0652 265.0498 15.08838480122015,6917.885,95.438,540.711,538.789,0.0
52137.0,STARLINK-3733,PAYLOAD,2024-05-24 06:25:01,15.08844192,0.0001396,53.2166,126.9351,93.1523,266.9629,0.00011704,1.575e-05,0.0,0 STARLINK-3733,1 52137U 22029BB  24145.26737649  .00001575  00000-0  11704-3 0  9997,2 52137  53.2166 126.9351 0001396  93.1523 266.9629 15.08844192122144,6917.868,95.437,540.698,538.767,0.0
52137.0,STARLINK-3733,PAYLOAD,2024-05-24 22:18:52,15.08842657,0.000138,53.2164,123.9621,95.3258,264.7892,0.00010624,1.403e-05,0.0,0 STARLINK-3733,1 52137U 22029BB  24145.92977689  .00001403  00000-0  10624-3 0  9990,2 52137  53.2164 123.9621 0001380  95.3258 264.7892 15.08842657122244,6917.872,95.437,540.692,538.783,0.0
52137.0,STARLINK-3733,PAYLOAD,2024-05-25 04:40:25,15.08838023,0.0001404,53.2169,122.7712,88.7821,271.3332,6.1471e-05,6.9e-06,0.0,0 STARLINK-3733,1 52137U 22029BB  24146.19474141  .00000690  00000-0  61471-4 0  9999,2 52137  53.2169 122.7712 0001404  88.7821 271.3332 15.08838023122285,6917.886,95.438,540.723,538.78,0.0
52137.0,STARLINK-3733,PAYLOAD,2024-05-25 07:51:12,15.08836206,0.000137,53.2166,122.1767,86.8235,273.2914,3.6928e-05,3e-06,0.0,0 STARLINK-3733,1 52137U 22029BB  24146.32722307  .00000300  00000-0  36928-4 0  9991,2 52137  53.2166 122.1767 0001370  86.8235 273.2914 15.08836206122307,6917.892,95.438,540.705,538.809,0.0
52137.0,STARLINK-3733,PAYLOAD,2024-05-25 15:48:06,15.08848009,0.0001098,53.2165,120.6909,93.36,266.7518,0.00012181,1.652e-05,0.0,0 STARLINK-3733,1 52137U 22029BB  24146.65841266  .00001652  00000-0  12181-3 0  9998,2 52137  53.2165 120.6909 0001098  93.3600 266.7518 15.08848009122359,6917.856,95.437,540.48,538.961,0.0
52137.0,STARLINK-3733,PAYLOAD,2024-05-26 04:31:12,15.08838046,0.0001353,53.2169,118.3118,93.8646,266.25,1.3965e-06,-2.66e-06,0.0,0 STARLINK-3733,1 52137U 22029BB  24147.18834323 -.00000266  00000-0  13965-5 0  9997,2 52137  53.2169 118.3118 0001353  93.8646 266.2500 15.08838046122433,6917.886,95.438,540.687,538.815,0.0
52137.0,STARLINK-3733,PAYLOAD,2024-05-26 07:41:58,15.0884016,0.00014,53.2169,117.7166,94.6776,265.4376,1.9735e-05,2.6e-07,0.0,0 STARLINK-3733,1 52137U 22029BB  24147.32082130  .00000026  00000-0  19735-4 0  9997,2 52137  53.2169 117.7166 0001400  94.6776 265.4376 15.08840160122459,6917.88,95.438,540.713,538.776,0.0
52137.0,STARLINK-3733,PAYLOAD,2024-05-26 15:38:54,15.08843416,0.0001356,53.2173,116.2301,94.9217,265.193,4.3256e-05,4.01e-06,0.0,0 STARLINK-3733,1 52137U 22029BB  24147.65201790  .00000401  00000-0  43256-4 0  9990,2 52137  53.2173 116.2301 0001356  94.9217 265.1930 15.08843416122508,6917.87,95.437,540.673,538.797,0.0
52137.0,STARLINK-3733,PAYLOAD,2024-05-26 22:00:28,15.08824303,0.0001326,53.2168,115.0423,80.2212,279.893,2.4023e-05,9.4e-07,0.0,0 STARLINK-3733,1 52137U 22029BB  24147.91699091  .00000094  00000-0  24023-4 0  9993,2 52137  53.2168 115.0423 0001326  80.2212 279.8930 15.08824303122544,6917.928,95.439,540.711,538.876,0.0
52137.0,STARLINK-3733,PAYLOAD,2024-05-27 04:22:00,15.0883124,0.0001422,53.2175,113.852,97.3094,262.806,5.6705e-05,6.14e-06,0.0,0 STARLINK-3733,1 52137U 22029BB  24148.18194665  .00000614  00000-0  56705-4 0  9990,2 52137  53.2175 113.8520 0001422  97.3094 262.8060 15.08831240122588,6917.907,95.438,540.756,538.788,0.0
52137.0,STARLINK-3733,PAYLOAD,2024-05-27 21:51:14,15.08836476,0.0001348,53.2169,110.5784,103.9489,256.1653,4.3025e-05,3.97e-06,0.0,0 STARLINK-3733,1 52137U 22029BB  24148.91058503  .00000397  00000-0  43025-4 0  9990,2 52137  53.2169 110.5784 0001348 103.9489 256.1653 15.08836476122698,6917.891,95.438,540.689,538.824,0.0
52137.0,STARLINK-3733,PAYLOAD,2024-05-28 04:12:46,15.08838845,0.0001327,53.2167,109.3894,98.9429,261.1714,5.6698e-05,6.15e-06,0.0,0 STARLINK-3733,1 52137U 22029BB  24149.17554380  .00000615  00000-0  56698-4 0  9996,2 52137  53.2167 109.3894 0001327  98.9429 261.1714 15.08838845122739,6917.884,95.438,540.667,538.831,0.0
52137.0,STARLINK-3733,PAYLOAD,2024-05-28 07:23:33,15.08839193,0.0001348,53.2168,108.7948,100.7466,259.3678,5.7381e-05,6.25e-06,0.0,0 STARLINK-3733,1 52137U 22029BB  24149.30802355  .00000625  00000-0  57381-4 0  9990,2 52137  53.2168 108.7948 0001348 100.7466 259.3678 15.08839193122756,6917.883,95.438,540.68,538.815,0.0
52137.0,STARLINK-3733,PAYLOAD,2024-05-29 02:28:11,15.08836819,0.0001302,53.217,105.2263,100.1449,259.969,4.2132e-05,3.83e-06,0.0,0 STARLINK-3733,1 52137U 22029BB  24150.10290631  .00000383  00000-0  42132-4 0  9997,2 52137  53.2170 105.2263 0001302 100.1449 259.9690 15.08836819122871,6917.89,95.438,540.656,538.854,0.0
52137.0,STARLINK-3733,PAYLOAD,2024-05-29 19:57:25,15.08838776,0.000126,53.2171,101.9551,95.7475,264.3661,2.6447e-05,1.33e-06,0.0,0 STARLINK-3733,1 52137U 22029BB  24150.83154773  .00000133  00000-0  26447-4 0  9997,2 52137  53.2171 101.9551 0001260  95.7475 264.3661 15.08838776122980,6917.884,95.438,540.621,538.877,0.0
52137.0,STARLINK-3733,PAYLOAD,2024-05-30 05:29:44,15.08840828,0.0001229,53.2169,100.1709,99.1628,260.9503,5.0746e-05,5.2e-06,0.0,0 STARLINK-3733,1 52137U 22029BB  24151.22898584  .00000520  00000-0  50746-4 0  9995,2 52137  53.2169 100.1709 0001229  99.1628 260.9503 15.08840828123042,6917.878,95.438,540.593,538.893,0.0
52137.0,STARLINK-3733,PAYLOAD,2024-05-31 03:45:08,15.08839207,0.0001195,53.2173,96.0085,85.7895,274.3234,5.317e-05,5.58e-06,0.0,0 STARLINK-3733,1 52137U 22029BB  24152.15634802  .00000558  00000-0  53170-4 0  9994,2 52137  53.2173  96.0085 0001195  85.7895 274.3234 15.08839207123180,6917.883,95.438,540.574,538.921,0.0
52137.0,STARLINK-3733,PAYLOAD,2024-05-31 05:20:31,15.08839997,0.0001213,53.2175,95.7111,87.8242,272.2889,6.0593e-05,6.77e-06,0.0,0 STARLINK-3733,1 52137U 22029BB  24152.22258742  .00000677  00000-0  60593-4 0  9996,2 52137  53.2175  95.7111 0001213  87.8242 272.2889 15.08839997123198,6917.88,95.438,540.585,538.906,0.0
52137.0,STARLINK-3733,PAYLOAD,2024-06-01 03:35:55,15.08836735,0.000138,53.218,91.5479,80.2872,279.8276,-7.6038e-06,-4.09e-06,0.0,0 STARLINK-3733,1 52137U 22029BB  24153.14995197 -.00000409  00000-0 -76038-5 0  9997,2 52137  53.2180  91.5479 0001380  80.2872 279.8276 15.08836735123332,6917.89,95.438,540.71,538.801,0.0
52137.0,STARLINK-3733,PAYLOAD,2024-06-01 19:29:46,15.08836963,0.0001461,53.2174,88.5779,78.9535,281.1621,8.2949e-05,1.032e-05,0.0,0 STARLINK-3733,1 52137U 22029BB  24153.81234881  .00001032  00000-0  82949-4 0  9995,2 52137  53.2174  88.5779 0001461  78.9535 281.1621 15.08836963123438,6917.89,95.438,540.765,538.744,0.0
